{
  "norad_id": 38045,
  "name": "GLOBALSTAR M086",
  "history": [
    {
      "epoch": "2026-03-28T14:31:56.609184Z",
      "apogee_km": 1414.2417574701076,
      "perigee_km": 1412.81588262504,
      "latitude_deg": 10.265433626740752,
      "longitude_deg": 177.86363379636205,
      "height_km": 1414.181952016956,
      "semi_major_axis_km": 7791.665820047574,
      "eccentricity": 9.15e-05,
      "inclination_deg": 51.9893,
      "raan_deg": 213.7759,
      "arg_perigee_deg": 195.2343,
      "mean_anomaly_deg": 177.8529,
      "mean_motion_rev_day": 12.62284605
    },
    {
      "epoch": "2026-03-29T02:46:11.659872Z",
      "apogee_km": 1414.234823165104,
      "perigee_km": 1412.8229733043436,
      "latitude_deg": 6.818308483297141,
      "longitude_deg": 158.81282113469032,
      "height_km": 1412.9514030614293,
      "semi_major_axis_km": 7791.6658982347235,
      "eccentricity": 9.06e-05,
      "inclination_deg": 51.9893,
      "raan_deg": 212.2232,
      "arg_perigee_deg": 197.2057,
      "mean_anomaly_deg": 334.0931,
      "mean_motion_rev_day": 12.62284586
    },
    {
      "epoch": "2026-03-30T01:34:30.681696Z",
      "apogee_km": 1414.2226758423567,
      "perigee_km": 1412.83482433895,
      "latitude_deg": 6.727340497768973,
      "longitude_deg": 172.97545725777434,
      "height_km": 1412.9825791639016,
      "semi_major_axis_km": 7791.665750090653,
      "eccentricity": 8.906e-05,
      "inclination_deg": 51.9894,
      "raan_deg": 209.3296,
      "arg_perigee_deg": 200.1377,
      "mean_anomaly_deg": 331.2768,
      "mean_motion_rev_day": 12.62284622
    },
    {
      "epoch": "2026-03-30T12:29:47.646240Z",
      "apogee_km": 1414.2199446438653,
      "perigee_km": 1412.8375473072147,
      "latitude_deg": 51.088710650347345,
      "longitude_deg": -92.9522110597252,
      "height_km": 1419.9701392562677,
      "semi_major_axis_km": 7791.66574597554,
      "eccentricity": 8.871e-05,
      "inclination_deg": 51.9893,
      "raan_deg": 207.9439,
      "arg_perigee_deg": 201.405,
      "mean_anomaly_deg": 238.8992,
      "mean_motion_rev_day": 12.62284623
    },
    {
      "epoch": "2026-03-31T14:44:57.192576Z",
      "apogee_km": 1414.2050954860515,
      "perigee_km": 1412.8524623068352,
      "latitude_deg": 10.56770725005523,
      "longitude_deg": 162.72791965874126,
      "height_km": 1414.1287729460632,
      "semi_major_axis_km": 7791.665778896443,
      "eccentricity": 8.68e-05,
      "inclination_deg": 51.9893,
      "raan_deg": 204.6129,
      "arg_perigee_deg": 204.7348,
      "mean_anomaly_deg": 168.7364,
      "mean_motion_rev_day": 12.62284615
    },
    {
      "epoch": "2026-04-01T13:33:22.462848Z",
      "apogee_km": 1414.1986069944905,
      "perigee_km": 1412.8584405244037,
      "latitude_deg": 10.916429111491757,
      "longitude_deg": 177.07622130433208,
      "height_km": 1414.1120279964118,
      "semi_major_axis_km": 7791.665523759447,
      "eccentricity": 8.6e-05,
      "inclination_deg": 51.9891,
      "raan_deg": 201.719,
      "arg_perigee_deg": 207.9122,
      "mean_anomaly_deg": 166.0037,
      "mean_motion_rev_day": 12.62284677
    },
    {
      "epoch": "2026-04-02T16:57:30.747168Z",
      "apogee_km": 1414.1821904418493,
      "perigee_km": 1412.8744373355667,
      "latitude_deg": 11.872021932668137,
      "longitude_deg": -76.59754251465046,
      "height_km": 1413.0045809971991,
      "semi_major_axis_km": 7791.665313888708,
      "eccentricity": 8.392e-05,
      "inclination_deg": 51.9889,
      "raan_deg": 198.242,
      "arg_perigee_deg": 210.8213,
      "mean_anomaly_deg": 314.0458,
      "mean_motion_rev_day": 12.62284728
    },
    {
      "epoch": "2026-04-03T13:03:37.777536Z",
      "apogee_km": 1414.1728760977976,
      "perigee_km": 1412.8830438803216,
      "latitude_deg": 10.103543487256296,
      "longitude_deg": 175.8730400802745,
      "height_km": 1414.0739896532332,
      "semi_major_axis_km": 7791.66495998906,
      "eccentricity": 8.277e-05,
      "inclination_deg": 51.9889,
      "raan_deg": 195.6914,
      "arg_perigee_deg": 213.6955,
      "mean_anomaly_deg": 159.1824,
      "mean_motion_rev_day": 12.62284814
    },
    {
      "epoch": "2026-04-04T13:46:12.580608Z",
      "apogee_km": 1414.1746352571126,
      "perigee_km": 1412.881218879219,
      "latitude_deg": 10.787657497064925,
      "longitude_deg": 161.63411144313403,
      "height_km": 1414.047701050127,
      "semi_major_axis_km": 7791.6649270681655,
      "eccentricity": 8.3e-05,
      "inclination_deg": 51.9893,
      "raan_deg": 192.5565,
      "arg_perigee_deg": 218.9119,
      "mean_anomaly_deg": 154.8379,
      "mean_motion_rev_day": 12.62284822
    },
    {
      "epoch": "2026-04-05T12:34:27.654816Z",
      "apogee_km": 1414.1636640870802,
      "perigee_km": 1412.8914410989319,
      "latitude_deg": 10.716633473870083,
      "longitude_deg": 175.68343308971654,
      "height_km": 1414.0237720642092,
      "semi_major_axis_km": 7791.664552593005,
      "eccentricity": 8.164e-05,
      "inclination_deg": 51.9892,
      "raan_deg": 189.663,
      "arg_perigee_deg": 221.7619,
      "mean_anomaly_deg": 151.8969,
      "mean_motion_rev_day": 12.62284913
    },
    {
      "epoch": "2026-04-06T05:44:31.025472Z",
      "apogee_km": 1414.160698585456,
      "perigee_km": 1412.894085621875,
      "latitude_deg": 20.098343630947586,
      "longitude_deg": -76.64389907995394,
      "height_km": 1414.4286654473317,
      "semi_major_axis_km": 7791.664392103665,
      "eccentricity": 8.128e-05,
      "inclination_deg": 51.9892,
      "raan_deg": 187.4848,
      "arg_perigee_deg": 224.8147,
      "mean_anomaly_deg": 160.9871,
      "mean_motion_rev_day": 12.62284952
    },
    {
      "epoch": "2026-04-07T10:32:22.478784Z",
      "apogee_km": 1414.1451561343765,
      "perigee_km": 1412.9095540009512,
      "latitude_deg": 51.24601012417887,
      "longitude_deg": -94.3037988268662,
      "height_km": 1420.1657523391414,
      "semi_major_axis_km": 7791.664355067664,
      "eccentricity": 7.929e-05,
      "inclination_deg": 51.9888,
      "raan_deg": 183.8307,
      "arg_perigee_deg": 227.9193,
      "mean_anomaly_deg": 213.1584,
      "mean_motion_rev_day": 12.62284961
    },
    {
      "epoch": "2026-04-08T12:47:11.495616Z",
      "apogee_km": 1414.1417598956477,
      "perigee_km": 1412.9125469588025,
      "latitude_deg": 10.331728389222489,
      "longitude_deg": 160.05978452672437,
      "height_km": 1413.9417256685133,
      "semi_major_axis_km": 7791.664153427225,
      "eccentricity": 7.888e-05,
      "inclination_deg": 51.9887,
      "raan_deg": 180.5005,
      "arg_perigee_deg": 232.5748,
      "mean_anomaly_deg": 140.5917,
      "mean_motion_rev_day": 12.6228501
    },
    {
      "epoch": "2026-04-09T11:35:27.062304Z",
      "apogee_km": 1414.1424112069144,
      "perigee_km": 1412.9114841364608,
      "latitude_deg": 10.281735266510575,
      "longitude_deg": 174.1244338657212,
      "height_km": 1413.9155264595809,
      "semi_major_axis_km": 7791.663947671687,
      "eccentricity": 7.899e-05,
      "inclination_deg": 51.9886,
      "raan_deg": 177.6071,
      "arg_perigee_deg": 236.3691,
      "mean_anomaly_deg": 136.7332,
      "mean_motion_rev_day": 12.6228506
    },
    {
      "epoch": "2026-04-10T12:47:08.495808Z",
      "apogee_km": 1414.1305217784375,
      "perigee_km": 1412.9228139099232,
      "latitude_deg": 49.40720769306128,
      "longitude_deg": -101.32167825507099,
      "height_km": 1419.6377902731085,
      "semi_major_axis_km": 7791.66366784418,
      "eccentricity": 7.75e-05,
      "inclination_deg": 51.9887,
      "raan_deg": 174.4104,
      "arg_perigee_deg": 240.2357,
      "mean_anomaly_deg": 225.6501,
      "mean_motion_rev_day": 12.62285128
    },
    {
      "epoch": "2026-04-11T21:26:44.994048Z",
      "apogee_km": 1414.125624547205,
      "perigee_km": 1412.9272667092664,
      "latitude_deg": 5.591140347375692,
      "longitude_deg": -175.89420255939504,
      "height_km": 1413.4801210550463,
      "semi_major_axis_km": 7791.663445628235,
      "eccentricity": 7.69e-05,
      "inclination_deg": 51.9884,
      "raan_deg": 170.2664,
      "arg_perigee_deg": 245.6506,
      "mean_anomaly_deg": 287.2066,
      "mean_motion_rev_day": 12.62285182
    },
    {
      "epoch": "2026-04-13T03:01:35.556672Z",
      "apogee_km": 1414.121248592981,
      "perigee_km": 1412.9314615986577,
      "latitude_deg": 12.921194764518654,
      "longitude_deg": -69.9278176914726,
      "height_km": 1413.8154811100997,
      "semi_major_axis_km": 7791.663355095819,
      "eccentricity": 7.635e-05,
      "inclination_deg": 51.9882,
      "raan_deg": 166.5132,
      "arg_perigee_deg": 250.4653,
      "mean_anomaly_deg": 126.012,
      "mean_motion_rev_day": 12.62285204
    },
    {
      "epoch": "2026-04-14T21:39:18.903168Z",
      "apogee_km": 1414.1153636912532,
      "perigee_km": 1412.9372641981863,
      "latitude_deg": 6.3917396923845695,
      "longitude_deg": 168.20505483522592,
      "height_km": 1413.5601920291408,
      "semi_major_axis_km": 7791.663313944719,
      "eccentricity": 7.56e-05,
      "inclination_deg": 51.988,
      "raan_deg": 161.1042,
      "arg_perigee_deg": 257.2534,
      "mean_anomaly_deg": 274.59,
      "mean_motion_rev_day": 12.62285214
    },
    {
      "epoch": "2026-04-15T20:27:32.455008Z",
      "apogee_km": 1414.1145680632399,
      "perigee_km": 1412.9380269053208,
      "latitude_deg": 6.526211143265659,
      "longitude_deg": -177.78788559740318,
      "height_km": 1413.59586605515,
      "semi_major_axis_km": 7791.6632974842805,
      "eccentricity": 7.55e-05,
      "inclination_deg": 51.9879,
      "raan_deg": 158.2106,
      "arg_perigee_deg": 261.3061,
      "mean_anomaly_deg": 270.3669,
      "mean_motion_rev_day": 12.62285218
    }
  ]
}